IONOSFERA-M 4           
1 64877U 25155B   26199.88509605  .00000019  00000+0  28128-4 0  9992
2 64877  98.6042 160.9125 0001873  95.9421 264.1970 14.21493650 50904
MICROCARB               
1 64899U 25156A   26199.81134760  .00000249  00000+0  46665-4 0  9997
2 64899  98.0073 276.4626 0017914 159.4624 200.7307 14.72887420 52628
CO3D 3                  
1 64900U 25156B   26199.78257410  .00002110  00000+0  10053-3 0  9994
2 64900  97.4332 278.0217 0001767  93.6804 266.4633 15.20207846 54337
CO3D 4                  
1 64901U 25156C   26199.78272646  .00000917  00000+0  45452-4 0  9998
2 64901  97.4339 278.0212 0001862 146.6357 213.4996 15.20207288 54332
CO3D 2                  
1 64902U 25156D   26199.81519767  .00002143  00000+0  10208-3 0  9994
2 64902  97.4331 277.9525 0001191  92.7261 267.4111 15.20209632 54333
CO3D 1                  
1 64903U 25156E   26199.81535284  .00002140  00000+0  10199-3 0  9993
2 64903  97.4332 277.9527 0001304 101.1301 259.0081 15.20195022 54333
PRSC-S1                 
1 65055U 25164A   26199.81909740  .00002246  00000+0  16051-3 0  9993
2 65055  41.1302 109.6297 0007250 220.1910 139.8368 15.06652603 53209
SENTINEL-6B             
1 66514U 25264A   26199.78465998 -.00000054  00000+0  29549-4 0  9996
2 66514  66.0411  69.5511 0007836 268.5133  91.4985 12.80930242 31215
CAS500-3                
1 66655U 25274F   26199.81312436  .00000587  00000+0  69200-4 0  9993
2 66655  97.7433 127.1449 0005990  27.9355 332.2183 14.88388465 34852
CSG-3                   
1 67304U 26001A   26199.05137176  .00000104  00000+0  19646-4 0  9990
2 67304  97.8897  22.2074 0001529  93.2524 266.8864 14.82153018 29036
PRSC-E03                
1 68835U 26092A   26199.86614668  .00000986  00000+0  72175-4 0  9999
2 68835  38.0007 262.8551 0005052 273.8308  86.1876 15.06817747 12737
CAS500-2                
1 69013U 26100AK  26199.47377493  .00002990  00000+0  14295-3 0  9992
2 69013  97.3853  96.7292 0007981 239.6975 120.3470 15.19745977 11562
