OBJECT_NAME,OBJECT_ID,EPOCH,MEAN_MOTION,ECCENTRICITY,INCLINATION,RA_OF_ASC_NODE,ARG_OF_PERICENTER,MEAN_ANOMALY,EPHEMERIS_TYPE,CLASSIFICATION_TYPE,NORAD_CAT_ID,ELEMENT_SET_NO,REV_AT_EPOCH,BSTAR,MEAN_MOTION_DOT,MEAN_MOTION_DDOT
IONOSFERA-M 4,2025-155B,2026-07-18T21:14:32.298720,14.21493650,.0001873,98.6042,160.9125,95.9421,264.1970,0,U,64877,999,5090,.28128E-4,.19E-6,0
MICROCARB,2025-156A,2026-07-18T19:28:20.432640,14.72887420,.0017914,98.0073,276.4626,159.4624,200.7307,0,U,64899,999,5262,.46665E-4,.249E-5,0
CO3D 3,2025-156B,2026-07-18T18:46:54.402240,15.20207846,.0001767,97.4332,278.0217,93.6804,266.4633,0,U,64900,999,5433,.10053E-3,.211E-4,0
CO3D 4,2025-156C,2026-07-18T18:47:07.566144,15.20207288,.0001862,97.4339,278.0212,146.6357,213.4996,0,U,64901,999,5433,.45452E-4,.917E-5,0
CO3D 2,2025-156D,2026-07-18T19:33:53.078688,15.20209632,.0001191,97.4331,277.9525,92.7261,267.4111,0,U,64902,999,5433,.10208E-3,.2143E-4,0
CO3D 1,2025-156E,2026-07-18T19:34:06.485376,15.20195022,.0001304,97.4332,277.9527,101.1301,259.0081,0,U,64903,999,5433,.10199E-3,.214E-4,0
PRSC-S1,2025-164A,2026-07-18T19:39:30.015360,15.06652603,.000725,41.1302,109.6297,220.1910,139.8368,0,U,65055,999,5320,.16051E-3,.2246E-4,0
SENTINEL-6B,2025-264A,2026-07-18T18:49:54.622272,12.80930242,.0007836,66.0411,69.5511,268.5133,91.4985,0,U,66514,999,3121,.29549E-4,-.54E-6,0
CAS500-3,2025-274F,2026-07-18T19:30:53.944704,14.88388465,.000599,97.7433,127.1449,27.9355,332.2183,0,U,66655,999,3485,.692E-4,.587E-5,0
CSG-3,2026-001A,2026-07-18T01:13:58.520064,14.82153018,.00015297,97.8897,22.2074,93.2524,266.8864,0,U,67304,999,2903,.19646123E-4,.104E-5,0
PRSC-E03,2026-092A,2026-07-18T20:47:15.073152,15.06817747,.0005052,38.0007,262.8551,273.8308,86.1876,0,U,68835,999,1273,.72175E-4,.986E-5,0
CAS500-2,2026-100AK,2026-07-18T11:22:14.153952,15.19745977,.00079811,97.3853,96.7292,239.6975,120.3470,0,U,69013,999,1156,.14294841E-3,.299E-4,0
